{
  "type": "FeatureCollection",
  "features": [
    {
      "type": "Feature",
      "properties": {
        "norad_id": 58655,
        "name": "BEIDOU-3 M26 (C48)",
        "group": "beidou",
        "lat": -14.086391003672983,
        "lon": 58.39165955992116,
        "alt_km": 21528.819600315746,
        "timestamp": "2025-12-22T09:53:37.667377+00:00",
        "meta_object_name": "BEIDOU-3 M26 (C48)",
        "meta_object_id": "2023-207B",
        "meta_epoch": "2025-12-21T08:44:02.320800",
        "meta_mean_motion": 1.8623129,
        "meta_eccentricity": 0.0004111,
        "meta_inclination": 55.5938,
        "meta_ra_of_asc_node": 68.2956,
        "meta_arg_of_pericenter": 259.2953,
        "meta_mean_anomaly": 100.7044,
        "meta_ephemeris_type": 0,
        "meta_classification_type": "U",
        "meta_norad_cat_id": 58655,
        "meta_element_set_no": 999,
        "meta_rev_at_epoch": 1351,
        "meta_bstar": 0,
        "meta_mean_motion_dot": -3.7e-07,
        "meta_mean_motion_ddot": 0,
        "tle_line1": "1 58655U 23207B   25355.36391575 -.00000037  00000+0  00000+0 0  9991",
        "tle_line2": "2 58655  55.5938  68.2956 0004111 259.2953 100.7044  1.86231290 13512"
      },
      "geometry": {
        "type": "Point",
        "coordinates": [
          58.39165955992116,
          -14.086391003672983
        ]
      }
    },
    {
      "type": "Feature",
      "properties": {
        "norad_id": 61186,
        "name": "BEIDOU-3 M25 (C47)",
        "group": "beidou",
        "lat": 53.48808504846989,
        "lon": 54.946310032891226,
        "alt_km": 21536.205046530053,
        "timestamp": "2025-12-22T09:53:37.667388+00:00",
        "meta_object_name": "BEIDOU-3 M25 (C47)",
        "meta_object_id": "2024-168B",
        "meta_epoch": "2025-12-21T10:54:12.559392",
        "meta_mean_motion": 1.86230226,
        "meta_eccentricity": 0.00054533,
        "meta_inclination": 54.6344,
        "meta_ra_of_asc_node": 308.4188,
        "meta_arg_of_pericenter": 299.6756,
        "meta_mean_anomaly": 237.8086,
        "meta_ephemeris_type": 0,
        "meta_classification_type": "U",
        "meta_norad_cat_id": 61186,
        "meta_element_set_no": 999,
        "meta_rev_at_epoch": 847,
        "meta_bstar": 0,
        "meta_mean_motion_dot": -6.3e-07,
        "meta_mean_motion_ddot": 0,
        "tle_line1": "1 61186U 24168B   25355.45431203 -.00000063  00000+0  00000+0 0  9993",
        "tle_line2": "2 61186  54.6344 308.4188 0005453 299.6756 237.8086  1.86230226  8476"
      },
      "geometry": {
        "type": "Point",
        "coordinates": [
          54.946310032891226,
          53.48808504846989
        ]
      }
    },
    {
      "type": "Feature",
      "properties": {
        "norad_id": 61187,
        "name": "BEIDOU-3 M27 (C49)",
        "group": "beidou",
        "lat": -41.71805249290254,
        "lon": 167.59318398213892,
        "alt_km": 21534.927760647668,
        "timestamp": "2025-12-22T09:53:37.667399+00:00",
        "meta_object_name": "BEIDOU-3 M27 (C49)",
        "meta_object_id": "2024-168C",
        "meta_epoch": "2025-12-22T03:50:36.507264",
        "meta_mean_motion": 1.86230347,
        "meta_eccentricity": 0.0002543,
        "meta_inclination": 54.6292,
        "meta_ra_of_asc_node": 308.3781,
        "meta_arg_of_pericenter": 340.4099,
        "meta_mean_anomaly": 85.2457,
        "meta_ephemeris_type": 0,
        "meta_classification_type": "U",
        "meta_norad_cat_id": 61187,
        "meta_element_set_no": 999,
        "meta_rev_at_epoch": 596,
        "meta_bstar": 0,
        "meta_mean_motion_dot": -5.9e-07,
        "meta_mean_motion_ddot": 0,
        "tle_line1": "1 61187U 24168C   25356.16014476 -.00000059  00000+0  00000+0 0  9997",
        "tle_line2": "2 61187  54.6292 308.3781 0002543 340.4099  85.2457  1.86230347  5961"
      },
      "geometry": {
        "type": "Point",
        "coordinates": [
          167.59318398213892,
          -41.71805249290254
        ]
      }
    }
  ]
}